CUBEBUG-2 (LO-74)       
1 39440U 13066AA  26181.79482018  .00004655  00000+0  43003-3 0  9995
2 39440  97.8910 130.8314 0056909 344.0423  15.9001 14.93871723679020
FUNCUBE-1 (AO-73)       
1 39444U 13066AE  26181.84406837  .00007343  00000+0  45304-3 0  9993
2 39444  97.8284 153.5766 0037139 154.4436 205.8639 15.09653397681722
UWE-3                   
1 39446U 13066AG  26181.85061510  .00003219  00000+0  27807-3 0  9997
2 39446  97.8711 138.0184 0047037 274.5118  85.0730 14.97126889679623
UNISAT-6                
1 40012U 14033C   26181.91604382  .00002836  00000+0  30686-3 0  9993
2 40012  97.7892 334.3872 0045386  24.9924 335.3477 14.88312338648200
DUCHIFAT-1              
1 40021U 14033M   26181.88812847  .00158253  00000+0  14341-2 0  9990
2 40021  98.0445 243.0028 0000257 110.0507 250.0780 15.67539808657895
QB50P1                  
1 40025U 14033R   26181.26463463  .00007596  00000+0  37202-3 0  9997
2 40025  98.0957 193.3288 0009192 170.0607 190.0809 15.18453201655011
LILACSAT-2              
1 40908U 15049K   26181.94403481  .00020601  00000+0  34464-3 0  9993
2 40908  97.4625 219.3111 0006941 186.9444 173.1714 15.51897608597881
FOX-1A (AO-85)          
1 40967U 15058D   26181.76724953  .00002040  00000+0  18980-3 0  9990
2 40967  64.7740 236.7799 0131307  51.3115 309.9655 14.91024498115590
CAS-2T & KS-1Q          
1 41847U 16066G   26181.95390340  .00001649  00000+0  23741-3 0  9993
2 41847  98.3818 257.5327 0342822  87.8545 276.1857 14.44738747506783
RADFXSAT (FOX-1B)       
1 43017U 17073E   26181.56901580  .00006695  00000+0  29341-3 0  9992
2 43017  97.4686  48.5107 0148327 282.5576  75.9100 15.12893104467410
DIWATA-2B               
1 43678U 18084H   26181.97398451  .00002291  00000+0  18674-3 0  9995
2 43678  98.1198  18.7842 0013106 127.3604 232.8814 15.00511841418287
ES'HAIL 2               
1 43700U 18090A   26181.93169965  .00000155  00000+0  00000+0 0  9997
2 43700   0.0185  23.8632 0002236 109.8667 146.4572  1.00272416 27814
FOX-1CLIFF (AO-95)      
1 43770U 18099N   26181.64379136  .00011579  00000+0  43935-3 0  9994
2 43770  97.4380 241.8422 0006999 303.0257  57.0309 15.26988852415277
ITASAT                  
1 43786U 18099AE  26181.59069529  .00006267  00000+0  30036-3 0  9993
2 43786  97.4020 232.8356 0010949 309.6889  50.3380 15.19218577414944
JY1SAT (JO-97)          
1 43803U 18099AX  26181.14334601  .00015212  00000+0  46343-3 0  9998
2 43803  97.4129 244.0253 0005404 207.7837 152.3117 15.34057952415617
UWE-4                   
1 43880U 18111E   26181.60875191  .00031984  00000+0  63475-3 0  9992
2 43880  97.5854 110.6256 0004323 267.4417  92.6337 15.46943999412856
TIANYAN 01              
1 44881U 19093C   26181.91104978  .00000773  00000+0  93213-4 0  9992
2 44881  97.7535 253.8084 0014766  46.2069 314.0365 14.86541591353450
RS-44 & BREEZE-KM R/B   
1 44909U 19096E   26181.84324227  .00000010  00000+0 -13685-4 0  9999
2 44909  82.5224 330.6299 0218512 112.3786 250.0628 12.79748936304095
SALSAT                  
1 46495U 20068K   26181.48833811  .00007517  00000+0  26165-3 0  9990
2 46495  97.8843 185.3641 0007929 251.0233 109.0147 15.29983096317397
XW-3 (CAS-9)            
1 50466U 21131B   26181.93839315  .00000368  00000+0  12718-3 0  9996
2 50466  98.4992 274.2536 0005275  65.0823 295.0913 14.41369096237099
GREENCUBE (IO-117)      
1 53109U 22080E   26181.72466670 -.00000003  00000+0  00000+0 0  9998
2 53109  70.1437 293.5372 0008958 286.6703  73.2973  6.42583253 92937
UMKA 1 (RS40S)          
1 57172U 23091G   26181.91043303  .00007436  00000+0  33778-3 0  9998
2 57172  97.5044 240.5554 0014128  75.2646 285.0154 15.20975587166090
CUBESX-HSE 3 (RS42S)    
1 57178U 23091N   26181.96116953  .00015426  00000+0  50739-3 0  9995
2 57178  97.5088 247.7246 0011167  51.1945 309.0291 15.31558726166538
MONITOR-3 (RS58S)       
1 57180U 23091Q   26181.95084341  .00012078  00000+0  44213-3 0  9992
2 57180  97.5078 245.4994 0012418  57.6468 302.5972 15.28116664166391
MONITOR-4 (RS57S)       
1 57182U 23091S   26181.92913772  .00013316  00000+0  48583-3 0  9990
2 57182  97.5073 245.4496 0012395  57.9640 302.2801 15.28200842166394
MONITOR-2 (RS39S)       
1 57184U 23091U   26181.94903051  .00005531  00000+0  26680-3 0  9997
2 57184  97.5066 240.1433 0012536  69.2333 291.0243 15.19037968166047
SVYATOBOR 1 (RS60S)     
1 57187U 23091X   26181.95420694  .00010398  00000+0  39630-3 0  9994
2 57187  97.5084 245.8486 0010182  52.3298 307.8863 15.26846468166414
VIZARD-METEO (RS38S)    
1 57189U 23091Z   26181.95656125  .00020229  00000+0  56975-3 0  9991
2 57189  97.5090 251.7208 0007092  33.6597 326.5096 15.36459886166805
POLYTECH-UNIVERSE 3 (R*)
1 57191U 23091AB  26181.90852235  .00006261  00000+0  29925-3 0  9994
2 57191  97.5041 239.6073 0016996  83.4998 276.8171 15.19244942166032
UTMN 2 (RS27S)          
1 57203U 23091AP  26181.90598105  .00015186  00000+0  48730-3 0  9992
2 57203  97.5084 249.3192 0008264  41.2140 318.9724 15.32383507166648
