OBJECT_NAME,OBJECT_ID,EPOCH,MEAN_MOTION,ECCENTRICITY,INCLINATION,RA_OF_ASC_NODE,ARG_OF_PERICENTER,MEAN_ANOMALY,EPHEMERIS_TYPE,CLASSIFICATION_TYPE,NORAD_CAT_ID,ELEMENT_SET_NO,REV_AT_EPOCH,BSTAR,MEAN_MOTION_DOT,MEAN_MOTION_DDOT
CUBEBUG-2 (LO-74),2013-066AA,2026-06-30T19:04:32.463552,14.93871723,.00569094,97.8910,130.8314,344.0423,15.9001,0,U,39440,999,67902,.43003152E-3,.4655E-4,0
FUNCUBE-1 (AO-73),2013-066AE,2026-06-30T20:15:27.507168,15.09653397,.00371398,97.8284,153.5766,154.4436,205.8639,0,U,39444,999,68172,.45304015E-3,.7343E-4,0
UWE-3,2013-066AG,2026-06-30T20:24:53.144640,14.97126889,.00470378,97.8711,138.0184,274.5118,85.0730,0,U,39446,999,67962,.2780667E-3,.3219E-4,0
UNISAT-6,2014-033C,2026-06-30T21:59:06.186048,14.88312338,.00453865,97.7892,334.3872,24.9924,335.3477,0,U,40012,999,64820,.30686474E-3,.2836E-4,0
DUCHIFAT-1,2014-033M,2026-06-30T21:18:54.299808,15.67539808,.00002574,98.0445,243.0028,110.0507,250.0780,0,U,40021,999,65789,.14340818E-2,.158253E-2,0
QB50P1,2014-033R,2026-06-30T06:21:04.432032,15.18453201,.00091928,98.0957,193.3288,170.0607,190.0809,0,U,40025,999,65501,.37202082E-3,.7596E-4,0
LILACSAT-2,2015-049K,2026-06-30T22:39:24.607584,15.51897608,.00069416,97.4625,219.3111,186.9444,173.1714,0,U,40908,999,59788,.34464043E-3,.20601E-3,0
FOX-1A (AO-85),2015-058D,2026-06-30T18:24:50.359392,14.91024498,.0131307,64.7740,236.7799,51.3115,309.9655,0,U,40967,999,11559,.18979989E-3,.204E-4,0
CAS-2T & KS-1Q,2016-066G,2026-06-30T22:53:37.253760,14.44738747,.03428226,98.3818,257.5327,87.8545,276.1857,0,U,41847,999,50678,.23740508E-3,.1649E-4,0
RADFXSAT (FOX-1B),2017-073E,2026-06-30T13:39:22.965120,15.12893104,.01483276,97.4686,48.5107,282.5576,75.9100,0,U,43017,999,46741,.2934117E-3,.6695E-4,0
DIWATA-2B,2018-084H,2026-06-30T23:22:32.261664,15.00511841,.00131065,98.1198,18.7842,127.3604,232.8814,0,U,43678,999,41828,.18673964E-3,.2291E-4,0
ES'HAIL 2,2018-090A,2026-06-30T22:21:38.849760,1.00272416,.00022368,0.0185,23.8632,109.8667,146.4572,0,U,43700,999,2781,0,.155E-5,0
FOX-1CLIFF (AO-95),2018-099N,2026-06-30T15:27:03.573504,15.26988852,.00069991,97.4380,241.8422,303.0257,57.0309,0,U,43770,999,41527,.43934723E-3,.11579E-3,0
ITASAT,2018-099AE,2026-06-30T14:10:36.073056,15.19218577,.00109494,97.4020,232.8356,309.6889,50.3380,0,U,43786,999,41494,.30036376E-3,.6267E-4,0
JY1SAT (JO-97),2018-099AX,2026-06-30T03:26:25.095264,15.34057952,.0005404,97.4129,244.0253,207.7837,152.3117,0,U,43803,999,41561,.4634271E-3,.15212E-3,0
UWE-4,2018-111E,2026-06-30T14:36:36.165024,15.46943999,.00043237,97.5854,110.6256,267.4417,92.6337,0,U,43880,999,41285,.63474878E-3,.31984E-3,0
TIANYAN 01,2019-093C,2026-06-30T21:51:54.700992,14.86541591,.00147667,97.7535,253.8084,46.2069,314.0365,0,U,44881,999,35345,.9321346E-4,.773E-5,0
RS-44 & BREEZE-KM R/B,2019-096E,2026-06-30T20:14:16.132128,12.79748936,.02185122,82.5224,330.6299,112.3786,250.0628,0,U,44909,999,30409,-.13685044E-4,.1E-6,0
SALSAT,2020-068K,2026-06-30T11:43:12.412704,15.29983096,.0007929,97.8843,185.3641,251.0233,109.0147,0,U,46495,999,31739,.26165469E-3,.7517E-4,0
XW-3 (CAS-9),2021-131B,2026-06-30T22:31:17.168160,14.41369096,.00052754,98.4992,274.2536,65.0823,295.0913,0,U,50466,999,23709,.12717692E-3,.368E-5,0
GREENCUBE (IO-117),2022-080E,2026-06-30T17:23:31.202880,6.42583253,.00089588,70.1437,293.5372,286.6703,73.2973,0,U,53109,999,9293,0,-.3E-7,0
UMKA 1 (RS40S),2023-091G,2026-06-30T21:51:01.413792,15.20975587,.00141289,97.5044,240.5554,75.2646,285.0154,0,U,57172,999,16609,.3377797E-3,.7436E-4,0
CUBESX-HSE 3 (RS42S),2023-091N,2026-06-30T23:04:05.047392,15.31558726,.00111678,97.5088,247.7246,51.1945,309.0291,0,U,57178,999,16653,.50738934E-3,.15426E-3,0
MONITOR-3 (RS58S),2023-091Q,2026-06-30T22:49:12.870624,15.28116664,.00124189,97.5078,245.4994,57.6468,302.5972,0,U,57180,999,16639,.44213256E-3,.12078E-3,0
MONITOR-4 (RS57S),2023-091S,2026-06-30T22:17:57.499008,15.28200842,.00123954,97.5073,245.4496,57.9640,302.2801,0,U,57182,999,16639,.48583209E-3,.13316E-3,0
MONITOR-2 (RS39S),2023-091U,2026-06-30T22:46:36.236064,15.19037968,.0012536,97.5066,240.1433,69.2333,291.0243,0,U,57184,999,16604,.26680223E-3,.5531E-4,0
SVYATOBOR 1 (RS60S),2023-091X,2026-06-30T22:54:03.479616,15.26846468,.00101826,97.5084,245.8486,52.3298,307.8863,0,U,57187,999,16641,.39630182E-3,.10398E-3,0
VIZARD-METEO (RS38S),2023-091Z,2026-06-30T22:57:26.892000,15.36459886,.00070927,97.5090,251.7208,33.6597,326.5096,0,U,57189,999,16680,.56975379E-3,.20229E-3,0
POLYTECH-UNIVERSE 3 (RS46S),2023-091AB,2026-06-30T21:48:16.331040,15.19244942,.00169966,97.5041,239.6073,83.4998,276.8171,0,U,57191,999,16603,.29924591E-3,.6261E-4,0
UTMN 2 (RS27S),2023-091AP,2026-06-30T21:44:36.762720,15.32383507,.00082647,97.5084,249.3192,41.2140,318.9724,0,U,57203,999,16664,.48730198E-3,.15186E-3,0
